[{"OBJECT_NAME":"STARLINK-30129","OBJECT_ID":"2023-067B","EPOCH":"2026-03-09T00:21:49.604544","MEAN_MOTION":15.02532206,"ECCENTRICITY":0.00011255,"INCLINATION":43.0028,"RA_OF_ASC_NODE":278.5242,"ARG_OF_PERICENTER":259.4018,"MEAN_ANOMALY":100.6698,"EPHEMERIS_TYPE":0,"CLASSIFICATION_TYPE":"U","NORAD_CAT_ID":56689,"ELEMENT_SET_NO":999,"REV_AT_EPOCH":15555,"BSTAR":2.9242852e-5,"MEAN_MOTION_DOT":1.91e-6,"MEAN_MOTION_DDOT":0},{"OBJECT_NAME":"FENGYUN 1C DEB","OBJECT_ID":"1999-025BRA","EPOCH":"2026-03-07T21:38:03.570144","MEAN_MOTION":15.14550758,"ECCENTRICITY":0.01045185,"INCLINATION":98.8762,"RA_OF_ASC_NODE":52.6466,"ARG_OF_PERICENTER":91.2586,"MEAN_ANOMALY":270.0618,"EPHEMERIS_TYPE":0,"CLASSIFICATION_TYPE":"U","NORAD_CAT_ID":31346,"ELEMENT_SET_NO":999,"REV_AT_EPOCH":773,"BSTAR":0.0014203897,"MEAN_MOTION_DOT":0.00030047,"MEAN_MOTION_DDOT":0}]
